[{"OBJECT_NAME":"TIANQI-24","OBJECT_ID":"2023-135D","EPOCH":"2026-03-09T20:57:37.180800","MEAN_MOTION":14.23089643,"ECCENTRICITY":0.00134171,"INCLINATION":49.9722,"RA_OF_ASC_NODE":210.6392,"ARG_OF_PERICENTER":273.0428,"MEAN_ANOMALY":86.8949,"EPHEMERIS_TYPE":0,"CLASSIFICATION_TYPE":"U","NORAD_CAT_ID":57795,"ELEMENT_SET_NO":999,"REV_AT_EPOCH":13048,"BSTAR":0.00014051861,"MEAN_MOTION_DOT":1.6e-6,"MEAN_MOTION_DDOT":0},{"OBJECT_NAME":"GEOS 3","OBJECT_ID":"1975-027A","EPOCH":"2026-03-09T16:28:33.104928","MEAN_MOTION":14.19165666,"ECCENTRICITY":0.00178327,"INCLINATION":114.9877,"RA_OF_ASC_NODE":7.463,"ARG_OF_PERICENTER":307.1574,"MEAN_ANOMALY":52.7876,"EPHEMERIS_TYPE":0,"CLASSIFICATION_TYPE":"U","NORAD_CAT_ID":7734,"ELEMENT_SET_NO":999,"REV_AT_EPOCH":63515,"BSTAR":6.5086005e-5,"MEAN_MOTION_DOT":-3.9e-7,"MEAN_MOTION_DDOT":0}]
